NORAD_CAT_ID,OBJECT_NAME,OBJECT_TYPE,EPOCH,MEAN_MOTION,ECCENTRICITY,INCLINATION,RA_OF_ASC_NODE,ARG_OF_PERICENTER,MEAN_ANOMALY,BSTAR,MEAN_MOTION_DOT,MEAN_MOTION_DDOT,TLE_LINE0,TLE_LINE1,TLE_LINE2,SEMIMAJOR_AXIS,PERIOD,APOGEE,PERIGEE,DECAYED
56812.0,STARLINK-6065,PAYLOAD,2023-06-14 04:00:00,15.7659351,0.0003237,70.0026,14.2794,273.2603,266.9103,-0.0066531,-0.00952346,0.0,0 STARLINK-6065,1 56812U 23078AX  23165.16667824 -.00952346  00000-0 -66531-2 0  9993,2 56812  70.0026  14.2794 0003237 273.2603 266.9103 15.76593510  2487,6718.237,91.336,342.277,337.928,0.0
56812.0,STARLINK-6065,PAYLOAD,2023-06-14 12:00:00,15.75914353,0.0003435,70.0027,13.3334,264.7066,6.372,-0.006393,-0.00894324,0.0,0 STARLINK-6065,1 56812U 23078AX  23165.50001157 -.00894324  00000-0 -63930-2 0  9993,2 56812  70.0027  13.3334 0003435 264.7066   6.3720 15.75914353  2545,6720.168,91.376,344.341,339.724,0.0
56812.0,STARLINK-6065,PAYLOAD,2023-06-14 14:00:01,15.757775,0.0003501,70.003,13.0971,267.5688,116.1057,-0.0067723,-0.00936911,0.0,0 STARLINK-6065,1 56812U 23078AX  23165.58334491 -.00936911  00000-0 -67723-2 0  9994,2 56812  70.0030  13.0971 0003501 267.5688 116.1057 15.75777500  1305,6720.557,91.383,344.774,340.069,0.0
56812.0,STARLINK-6065,PAYLOAD,2023-06-14 22:00:00,15.75077106,0.0003352,70.0031,12.1522,274.2233,199.3955,-0.006418,-0.00868076,0.0,0 STARLINK-6065,1 56812U 23078AX  23165.91667824 -.00868076  00000-0 -64180-2 0  9990,2 56812  70.0031  12.1522 0003352 274.2233 199.3955 15.75077106  1308,6722.549,91.424,346.667,342.16,0.0
56812.0,STARLINK-6065,PAYLOAD,2023-06-15 04:00:00,15.74635335,0.0003324,70.0027,11.4441,274.0989,176.4355,-0.0072401,-0.00950979,0.0,0 STARLINK-6065,1 56812U 23078AX  23166.16667824 -.00950979  00000-0 -72401-2 0  9997,2 56812  70.0027  11.4441 0003324 274.0989 176.4355 15.74635335  2641,6723.806,91.45,347.906,343.436,0.0
56812.0,STARLINK-6065,PAYLOAD,2023-06-15 12:00:02,15.73958736,0.0003339,70.0028,10.5013,265.7523,273.4049,-0.0069387,-0.00891401,0.0,0 STARLINK-6065,1 56812U 23078AX  23166.50002315 -.00891401  00000-0 -69387-2 0  9996,2 56812  70.0028  10.5013 0003339 265.7523 273.4049 15.73958736  2699,6725.733,91.489,349.844,345.352,0.0
56812.0,STARLINK-6065,PAYLOAD,2023-06-15 14:00:01,15.73826998,0.0003521,70.003,10.2657,265.2166,25.8837,-0.0074264,-0.00942824,0.0,0 STARLINK-6065,1 56812U 23078AX  23166.58334491 -.00942824  00000-0 -74264-2 0  9993,2 56812  70.0030  10.2657 0003521 265.2166  25.8837 15.73826998  1309,6726.108,91.497,350.341,345.605,0.0
56812.0,STARLINK-6065,PAYLOAD,2023-06-15 20:00:01,15.73285027,0.0003585,70.0025,9.5591,270.305,356.5788,-0.0070621,-0.00882325,0.0,0 STARLINK-6065,1 56812U 23078AX  23166.83334491 -.00882325  00000-0 -70621-2 0  9993,2 56812  70.0025   9.5591 0003585 270.3050 356.5788 15.73285027  1301,6727.653,91.528,351.93,347.106,0.0
56812.0,STARLINK-6065,PAYLOAD,2023-06-16 04:00:00,15.72675862,0.000369,70.0019,8.6175,272.5243,81.3343,-0.0078503,-0.00947939,0.0,0 STARLINK-6065,1 56812U 23078AX  23167.16667824 -.00947939  00000-0 -78503-2 0  9999,2 56812  70.0019   8.6175 0003690 272.5243  81.3343 15.72675862  2802,6729.39,91.564,353.738,348.772,0.0
56812.0,STARLINK-6065,PAYLOAD,2023-06-16 12:00:00,15.72004875,0.0003721,70.0019,7.6769,268.6615,171.406,-0.007636,-0.00901173,0.0,0 STARLINK-6065,1 56812U 23078AX  23167.50001157 -.00901173  00000-0 -76360-2 0  9997,2 56812  70.0019   7.6769 0003721 268.6615 171.4060 15.72004875  2856,6731.305,91.603,355.674,350.665,0.0
56812.0,STARLINK-6065,PAYLOAD,2023-06-16 14:00:01,15.71860541,0.0003634,70.0022,7.442,266.3968,285.0962,-0.0079797,-0.00932366,0.0,0 STARLINK-6065,1 56812U 23078AX  23167.58334491 -.00932366  00000-0 -79797-2 0  9990,2 56812  70.0022   7.4420 0003634 266.3968 285.0962 15.71860541  1302,6731.717,91.611,356.028,351.135,0.0
56812.0,STARLINK-6065,PAYLOAD,2023-06-16 22:00:00,15.71157115,0.0003672,70.0022,6.5024,271.247,5.4962,-0.0074898,-0.00857263,0.0,0 STARLINK-6065,1 56812U 23078AX  23167.91667824 -.00857263  00000-0 -74898-2 0  9995,2 56812  70.0022   6.5024 0003672 271.2470   5.4962 15.71157115  1307,6733.726,91.652,358.063,353.118,0.0
56812.0,STARLINK-6065,PAYLOAD,2023-06-17 04:00:00,15.70693066,0.0003456,70.0018,5.7985,269.3404,340.8027,-0.0079145,-0.00885223,0.0,0 STARLINK-6065,1 56812U 23078AX  23168.16667824 -.00885223  00000-0 -79145-2 0  9990,2 56812  70.0018   5.7985 0003456 269.3404 340.8027 15.70693066  2964,6735.052,91.679,359.245,354.589,0.0
56812.0,STARLINK-6065,PAYLOAD,2023-06-17 09:03:11,15.70622676,0.0004619,70.002,5.2066,293.2915,66.7795,-0.0038982,-0.00457654,0.0,0 STARLINK-6065,1 56812U 23078AX  23168.37721589 -.00457654  00000-0 -38982-2 0  9999,2 56812  70.0020   5.2066 0004619 293.2915  66.7795 15.70622676  2995,6735.253,91.683,360.229,354.007,0.0
56812.0,STARLINK-6065,PAYLOAD,2023-06-17 12:06:39,15.70430042,0.0003797,70.002,4.8481,269.6344,90.4416,-0.0035687,-0.00417451,0.0,0 STARLINK-6065,1 56812U 23078AX  23168.50462170 -.00417451  00000-0 -35687-2 0  9992,2 56812  70.0020   4.8481 0003797 269.6344  90.4416 15.70430042  2752,6735.804,91.695,360.227,355.111,0.0
56812.0,STARLINK-6065,PAYLOAD,2023-06-17 16:41:54,15.70169107,0.0003433,70.0021,4.3104,267.6754,92.4049,-0.0028003,-0.00327465,0.0,0 STARLINK-6065,1 56812U 23078AX  23168.69576506 -.00327465  00000-0 -28003-2 0  9990,2 56812  70.0021   4.3104 0003433 267.6754  92.4049 15.70169107  3048,6736.55,91.71,360.728,356.103,0.0
56812.0,STARLINK-6065,PAYLOAD,2023-06-17 21:17:09,15.70058305,0.0003557,70.002,3.7731,270.1326,89.9463,-0.0015444,-0.00182954,0.0,0 STARLINK-6065,1 56812U 23078AX  23168.88691033 -.00182954  00000-0 -15444-2 0  9991,2 56812  70.0020   3.7731 0003557 270.1326  89.9463 15.70058305  2819,6736.867,91.716,361.129,356.336,0.0
56812.0,STARLINK-6065,PAYLOAD,2023-06-18 04:00:00,15.69958447,0.0003469,70.0006,2.9865,268.2655,232.4186,-0.00074027,-0.00088422,0.0,0 STARLINK-6065,1 56812U 23078AX  23169.16667824 -.00088422  00000-0 -74027-3 0  9992,2 56812  70.0006   2.9865 0003469 268.2655 232.4186 15.69958447  3112,6737.153,91.722,361.355,356.681,0.0
56812.0,STARLINK-6065,PAYLOAD,2023-06-18 12:00:00,15.69928085,0.0003541,70.0007,2.0493,262.164,321.8525,-2.1032e-06,-4.66e-06,0.0,0 STARLINK-6065,1 56812U 23078AX  23169.50001157 -.00000466  00000-0 -21032-5 0  9993,2 56812  70.0007   2.0493 0003541 262.1640 321.8525 15.69928085  3169,6737.24,91.724,361.49,356.719,0.0
56812.0,STARLINK-6065,PAYLOAD,2023-06-18 12:34:41,15.69935449,0.0003251,70.0018,1.982,257.7021,102.381,0.00012068,0.00014329,0.0,0 STARLINK-6065,1 56812U 23078AX  23169.52409100  .00014329  00000-0  12068-3 0  9993,2 56812  70.0018   1.9820 0003251 257.7021 102.3810 15.69935449  2917,6737.219,91.724,361.274,356.893,0.0
56812.0,STARLINK-6065,PAYLOAD,2023-06-18 22:00:00,15.6988079,0.0003461,70.0006,0.8775,271.6322,146.5719,0.00074515,0.00090193,0.0,0 STARLINK-6065,1 56812U 23078AX  23169.91667824  .00090193  00000-0  74515-3 0  9993,2 56812  70.0006   0.8775 0003461 271.6322 146.5719 15.69880790  1301,6737.375,91.727,361.572,356.908,0.0
56812.0,STARLINK-6065,PAYLOAD,2023-06-19 08:27:28,15.69948733,0.0003485,70.0009,359.6526,271.5538,88.5258,0.00052064,0.00062926,0.0,0 STARLINK-6065,1 56812U 23078AX  23170.35240866  .00062926  00000-0  52064-3 0  9994,2 56812  70.0009 359.6526 0003485 271.5538  88.5258 15.69948733  3304,6737.181,91.723,361.394,356.698,0.0
56812.0,STARLINK-6065,PAYLOAD,2023-06-19 13:02:43,15.69936143,0.0003434,70.001,359.1153,266.5864,93.4939,0.00016107,0.00019209,0.0,0 STARLINK-6065,1 56812U 23078AX  23170.54356014  .00019209  00000-0  16107-3 0  9992,2 56812  70.0010 359.1153 0003434 266.5864  93.4939 15.69936143  3074,6737.217,91.723,361.395,356.768,0.0
56812.0,STARLINK-6065,PAYLOAD,2023-06-19 20:00:01,15.69884005,0.0003606,70.0007,358.3004,272.4511,284.9324,0.00047655,0.00057388,0.0,0 STARLINK-6065,1 56812U 23078AX  23170.83334491  .00057388  00000-0  47655-3 0  9991,2 56812  70.0007 358.3004 0003606 272.4511 284.9324 15.69884005  3379,6737.366,91.727,361.66,356.801,0.0
56812.0,STARLINK-6065,PAYLOAD,2023-06-19 22:00:00,15.69884803,0.0003605,70.0007,358.066,273.4291,34.7816,0.00061851,0.00074704,0.0,0 STARLINK-6065,1 56812U 23078AX  23170.91667824  .00074704  00000-0  61851-3 0  9994,2 56812  70.0007 358.0660 0003605 273.4291  34.7816 15.69884803  1303,6737.364,91.726,361.657,356.8,0.0
56812.0,STARLINK-6065,PAYLOAD,2023-06-20 12:00:00,15.69944509,0.0003622,70.0005,356.4259,265.6457,98.3896,-0.00026495,-0.00031978,0.0,0 STARLINK-6065,1 56812U 23078AX  23171.50001157 -.00031978  00000-0 -26495-3 0  9994,2 56812  70.0005 356.4259 0003622 265.6457  98.3896 15.69944509  3488,6737.193,91.723,361.498,356.618,0.0
56812.0,STARLINK-6065,PAYLOAD,2023-06-20 14:00:01,15.69967541,0.0003618,70.0007,356.1913,266.6665,208.2003,-0.00077157,-0.00092149,0.0,0 STARLINK-6065,1 56812U 23078AX  23171.58334491 -.00092149  00000-0 -77157-3 0  9990,2 56812  70.0007 356.1913 0003618 266.6665 208.2003 15.69967541  1303,6737.127,91.722,361.429,356.554,0.0
56812.0,STARLINK-6065,PAYLOAD,2023-06-20 22:00:00,15.69876962,0.0003523,70.0006,355.2541,273.6023,284.6192,0.00074831,0.00090567,0.0,0 STARLINK-6065,1 56812U 23078AX  23171.91667824  .00090567  00000-0  74831-3 0  9992,2 56812  70.0006 355.2541 0003523 273.6023 284.6192 15.69876962  1303,6737.386,91.727,361.625,356.877,0.0
56812.0,STARLINK-6065,PAYLOAD,2023-06-21 01:44:46,15.69936273,0.000357,70.0006,354.8156,270.1154,89.9633,0.0001768,0.00021111,0.0,0 STARLINK-6065,1 56812U 23078AX  23172.07276132  .00021111  00000-0  17680-3 0  9996,2 56812  70.0006 354.8156 0003570 270.1154  89.9633 15.69936273  3578,6737.216,91.723,361.487,356.676,0.0
56812.0,STARLINK-6065,PAYLOAD,2023-06-21 12:27:02,15.69928831,0.0003657,70.0008,353.561,271.8858,88.1919,0.00035389,0.00042566,0.0,0 STARLINK-6065,1 56812U 23078AX  23172.51878045  .00042566  00000-0  35389-3 0  9999,2 56812  70.0008 353.5610 0003657 271.8858  88.1919 15.69928831  3643,6737.238,91.724,361.566,356.639,0.0
